start=new Date('2021-12-01T00:00:00.000Z').valueOf();
sats=[{"TIME_SYSTEM":"UTC","FILE":"3227572","RCS_SIZE":"LARGE","REF_FRAME":"TEME","OBJECT_TYPE":"PAYLOAD","DECAY_DATE":null,"COUNTRY_CODE":"US","CENTER_NAME":"EARTH","ECCENTRICITY":"0.00017290","ELEMENT_SET_NO":"999","MEAN_MOTION_DOT":"0.00000389","MEAN_MOTION":"15.06401491","CLASSIFICATION_TYPE":"U","OBJECT_ID":"2019-074F","APOAPSIS":"548.406","LAUNCH_DATE":"2019-11-11","RA_OF_ASC_NODE":"351.3195","SEMIMAJOR_AXIS":"6925.344","MEAN_MOTION_DDOT":"0.0000000000000","TLE_LINE2":"2 44718  53.0555 351.3195 0001729  59.0661 301.0498 15.06401491113564","PERIAPSIS":"546.012","MEAN_ELEMENT_THEORY":"SGP4","REV_AT_EPOCH":"11356","ARG_OF_PERICENTER":"59.0661","EPHEMERIS_TYPE":"0","NORAD_CAT_ID":"44718","TLE_LINE1":"1 44718U 19074F   21334.33625826  .00000389  00000-0  45024-4 0  9992","PERIOD":"95.592","MEAN_ANOMALY":"301.0498","EPOCH":"2021-11-30T08:04:12.713664","OBJECT_NAME":"STARLINK-1012","SITE":"AFETR","GP_ID":"190782486","BSTAR":"0.00004502400000","INCLINATION":"53.0555"},{"TLE_LINE2":"2 44719  53.0546 348.9000 0002373  73.1734 286.9516 15.06377167114774","MEAN_MOTION_DDOT":"0.0000000000000","LAUNCH_DATE":"2019-11-11","APOAPSIS":"548.927","RA_OF_ASC_NODE":"348.9000","SEMIMAJOR_AXIS":"6925.419","OBJECT_ID":"2019-074G","CLASSIFICATION_TYPE":"U","EPOCH":"2021-11-30T20:59:10.328640","OBJECT_NAME":"STARLINK-1013","PERIOD":"95.594","MEAN_ANOMALY":"286.9516","INCLINATION":"53.0546","BSTAR":"-0.00030390000000","GP_ID":"190814957","SITE":"AFETR","REV_AT_EPOCH":"11477","PERIAPSIS":"545.640","MEAN_ELEMENT_THEORY":"SGP4","NORAD_CAT_ID":"44719","TLE_LINE1":"1 44719U 19074G   21334.87442510 -.00004803  00000-0 -30390-3 0  9995","ARG_OF_PERICENTER":"73.1734","EPHEMERIS_TYPE":"0","ECCENTRICITY":"0.00023730","TIME_SYSTEM":"UTC","FILE":"3228256","RCS_SIZE":"LARGE","REF_FRAME":"TEME","OBJECT_TYPE":"PAYLOAD","DECAY_DATE":null,"CENTER_NAME":"EARTH","COUNTRY_CODE":"US","MEAN_MOTION":"15.06377167","ELEMENT_SET_NO":"999","MEAN_MOTION_DOT":"-0.00004803"},{"MEAN_MOTION":"15.06396507","ELEMENT_SET_NO":"999","MEAN_MOTION_DOT":"0.00001086","ECCENTRICITY":"0.00015520","TIME_SYSTEM":"UTC","FILE":"3228256","RCS_SIZE":"LARGE","OBJECT_TYPE":"PAYLOAD","REF_FRAME":"TEME","COUNTRY_CODE":"US","DECAY_DATE":null,"CENTER_NAME":"EARTH","PERIOD":"95.592","MEAN_ANOMALY":"298.6253","EPOCH":"2021-11-30T18:14:36.809664","OBJECT_NAME":"STARLINK-1014","SITE":"AFETR","GP_ID":"190815208","BSTAR":"0.00009179600000","INCLINATION":"53.0547","PERIAPSIS":"546.149","MEAN_ELEMENT_THEORY":"SGP4","REV_AT_EPOCH":"11363","ARG_OF_PERICENTER":"61.4892","EPHEMERIS_TYPE":"0","NORAD_CAT_ID":"44720","TLE_LINE1":"1 44720U 19074H   21334.76014826  .00001086  00000-0  91796-4 0  9996","LAUNCH_DATE":"2019-11-11","APOAPSIS":"548.299","SEMIMAJOR_AXIS":"6925.359","RA_OF_ASC_NODE":"349.4166","TLE_LINE2":"2 44720  53.0547 349.4166 0001552  61.4892 298.6253 15.06396507113630","MEAN_MOTION_DDOT":"0.0000000000000","CLASSIFICATION_TYPE":"U","OBJECT_ID":"2019-074H"},{"ECCENTRICITY":"0.00015520","REF_FRAME":"TEME","RCS_SIZE":"LARGE","OBJECT_TYPE":"PAYLOAD","CENTER_NAME":"EARTH","DECAY_DATE":null,"COUNTRY_CODE":"US","TIME_SYSTEM":"UTC","FILE":"3228256","MEAN_MOTION":"15.06402350","MEAN_MOTION_DOT":"0.00000830","ELEMENT_SET_NO":"999","APOAPSIS":"548.281","LAUNCH_DATE":"2019-11-11","RA_OF_ASC_NODE":"349.4531","SEMIMAJOR_AXIS":"6925.341","MEAN_MOTION_DDOT":"0.0000000000000","TLE_LINE2":"2 44721  53.0549 349.4531 0001552  63.1736 296.9411 15.06402350113625","CLASSIFICATION_TYPE":"U","OBJECT_ID":"2019-074J","SITE":"AFETR","GP_ID":"190813956","BSTAR":"0.00007463400000","INCLINATION":"53.0549","PERIOD":"95.592","MEAN_ANOMALY":"296.9411","EPOCH":"2021-11-30T17:58:40.870560","OBJECT_NAME":"STARLINK-1015","ARG_OF_PERICENTER":"63.1736","EPHEMERIS_TYPE":"0","NORAD_CAT_ID":"44721","TLE_LINE1":"1 44721U 19074J   21334.74908415  .00000830  00000-0  74634-4 0  9999","PERIAPSIS":"546.132","MEAN_ELEMENT_THEORY":"SGP4","REV_AT_EPOCH":"11362"},{"MEAN_ELEMENT_THEORY":"SGP4","PERIAPSIS":"545.959","REV_AT_EPOCH":"11363","ARG_OF_PERICENTER":"43.7237","EPHEMERIS_TYPE":"0","TLE_LINE1":"1 44722U 19074K   21334.75277701  .00000492  00000-0  51973-4 0  9993","NORAD_CAT_ID":"44722","MEAN_ANOMALY":"316.3898","PERIOD":"95.593","OBJECT_NAME":"STARLINK-1016","EPOCH":"2021-11-30T18:03:59.933664","SITE":"AFETR","GP_ID":"190814206","BSTAR":"0.00005197300000","INCLINATION":"53.0562","CLASSIFICATION_TYPE":"U","OBJECT_ID":"2019-074K","RA_OF_ASC_NODE":"349.4465","SEMIMAJOR_AXIS":"6925.371","LAUNCH_DATE":"2019-11-11","APOAPSIS":"548.513","TLE_LINE2":"2 44722  53.0562 349.4465 0001844  43.7237 316.3898 15.06392600113634","MEAN_MOTION_DDOT":"0.0000000000000","ELEMENT_SET_NO":"999","MEAN_MOTION_DOT":"0.00000492","MEAN_MOTION":"15.06392600","FILE":"3228256","TIME_SYSTEM":"UTC","DECAY_DATE":null,"COUNTRY_CODE":"US","CENTER_NAME":"EARTH","RCS_SIZE":"LARGE","OBJECT_TYPE":"PAYLOAD","REF_FRAME":"TEME","ECCENTRICITY":"0.00018440"},{"CLASSIFICATION_TYPE":"U","OBJECT_ID":"2019-074L","LAUNCH_DATE":"2019-11-11","APOAPSIS":"548.332","SEMIMAJOR_AXIS":"6925.366","RA_OF_ASC_NODE":"349.3888","TLE_LINE2":"2 44723  53.0568 349.3888 0001590  62.5490 297.5661 15.06394459113639","MEAN_MOTION_DDOT":"0.0000000000000","PERIAPSIS":"546.129","MEAN_ELEMENT_THEORY":"SGP4","REV_AT_EPOCH":"11363","ARG_OF_PERICENTER":"62.5490","EPHEMERIS_TYPE":"0","NORAD_CAT_ID":"44723","TLE_LINE1":"1 44723U 19074L   21334.76752373  .00000192  00000-0  31767-4 0  9994","PERIOD":"95.592","MEAN_ANOMALY":"297.5661","EPOCH":"2021-11-30T18:25:14.050272","OBJECT_NAME":"STARLINK-1017","GP_ID":"190815457","SITE":"AFETR","BSTAR":"0.00003176700000","INCLINATION":"53.0568","TIME_SYSTEM":"UTC","FILE":"3228256","OBJECT_TYPE":"PAYLOAD","RCS_SIZE":"LARGE","REF_FRAME":"TEME","COUNTRY_CODE":"US","DECAY_DATE":null,"CENTER_NAME":"EARTH","ECCENTRICITY":"0.00015900","ELEMENT_SET_NO":"999","MEAN_MOTION_DOT":"0.00000192","MEAN_MOTION":"15.06394459"},{"SEMIMAJOR_AXIS":"6925.375","RA_OF_ASC_NODE":"348.6569","APOAPSIS":"548.356","LAUNCH_DATE":"2019-11-11","MEAN_MOTION_DDOT":"0.0000000000000","TLE_LINE2":"2 44724  53.0557 348.6569 0001611  66.3910 293.7248 15.06391365113653","CLASSIFICATION_TYPE":"U","OBJECT_ID":"2019-074M","BSTAR":"0.00005411700000","GP_ID":"190815708","SITE":"AFETR","INCLINATION":"53.0557","MEAN_ANOMALY":"293.7248","PERIOD":"95.593","OBJECT_NAME":"STARLINK-1019","EPOCH":"2021-11-30T22:18:46.494720","EPHEMERIS_TYPE":"0","ARG_OF_PERICENTER":"66.3910","TLE_LINE1":"1 44724U 19074M   21334.92970480  .00000524  00000-0  54117-4 0  9997","NORAD_CAT_ID":"44724","MEAN_ELEMENT_THEORY":"SGP4","PERIAPSIS":"546.124","REV_AT_EPOCH":"11365","ECCENTRICITY":"0.00016110","DECAY_DATE":null,"CENTER_NAME":"EARTH","COUNTRY_CODE":"US","RCS_SIZE":"LARGE","REF_FRAME":"TEME","OBJECT_TYPE":"PAYLOAD","FILE":"3228256","TIME_SYSTEM":"UTC","MEAN_MOTION":"15.06391365","MEAN_MOTION_DOT":"0.00000524","ELEMENT_SET_NO":"999"},{"ECCENTRICITY":"0.00014150","FILE":"3228256","TIME_SYSTEM":"UTC","DECAY_DATE":null,"COUNTRY_CODE":"US","CENTER_NAME":"EARTH","RCS_SIZE":"LARGE","REF_FRAME":"TEME","OBJECT_TYPE":"PAYLOAD","MEAN_MOTION":"15.06396081","ELEMENT_SET_NO":"999","MEAN_MOTION_DOT":"-0.00000761","TLE_LINE2":"2 44725  53.0553   9.2196 0001415  73.8687 286.2457 15.06396081113358","MEAN_MOTION_DDOT":"0.0000000000000","RA_OF_ASC_NODE":"9.2196","SEMIMAJOR_AXIS":"6925.361","LAUNCH_DATE":"2019-11-11","APOAPSIS":"548.206","OBJECT_ID":"2019-074N","CLASSIFICATION_TYPE":"U","OBJECT_NAME":"STARLINK-1020","EPOCH":"2021-11-30T19:15:39.024864","MEAN_ANOMALY":"286.2457","PERIOD":"95.592","INCLINATION":"53.0553","GP_ID":"190814456","SITE":"AFETR","BSTAR":"-0.00003220400000","REV_AT_EPOCH":"11335","MEAN_ELEMENT_THEORY":"SGP4","PERIAPSIS":"546.246","TLE_LINE1":"1 44725U 19074N   21334.80253501 -.00000761  00000-0 -32204-4 0  9991","NORAD_CAT_ID":"44725","EPHEMERIS_TYPE":"0","ARG_OF_PERICENTER":"73.8687"},{"CLASSIFICATION_TYPE":"U","OBJECT_ID":"2019-074P","LAUNCH_DATE":"2019-11-11","APOAPSIS":"548.192","SEMIMAJOR_AXIS":"6925.335","RA_OF_ASC_NODE":"350.7661","TLE_LINE2":"2 44726  53.0558 350.7661 0001432  65.6681 294.4457 15.06404371113585","MEAN_MOTION_DDOT":"0.0000000000000","ARG_OF_PERICENTER":"65.6681","EPHEMERIS_TYPE":"0","NORAD_CAT_ID":"44726","TLE_LINE1":"1 44726U 19074P   21334.46157680  .00000409  00000-0  46324-4 0  9990","PERIAPSIS":"546.208","MEAN_ELEMENT_THEORY":"SGP4","REV_AT_EPOCH":"11358","BSTAR":"0.00004632400000","GP_ID":"190814706","SITE":"AFETR","INCLINATION":"53.0558","PERIOD":"95.592","MEAN_ANOMALY":"294.4457","EPOCH":"2021-11-30T11:04:40.235520","OBJECT_NAME":"STARLINK-1021","RCS_SIZE":"LARGE","REF_FRAME":"TEME","OBJECT_TYPE":"PAYLOAD","CENTER_NAME":"EARTH","DECAY_DATE":null,"COUNTRY_CODE":"US","TIME_SYSTEM":"UTC","FILE":"3228256","ECCENTRICITY":"0.00014320","MEAN_MOTION_DOT":"0.00000409","ELEMENT_SET_NO":"999","MEAN_MOTION":"15.06404371"},{"ECCENTRICITY":"0.00010850","FILE":"3228256","TIME_SYSTEM":"UTC","COUNTRY_CODE":"US","DECAY_DATE":null,"CENTER_NAME":"EARTH","RCS_SIZE":"LARGE","REF_FRAME":"TEME","OBJECT_TYPE":"PAYLOAD","MEAN_MOTION":"15.06397581","ELEMENT_SET_NO":"999","MEAN_MOTION_DOT":"-0.00001496","SEMIMAJOR_AXIS":"6925.356","RA_OF_ASC_NODE":"28.7641","LAUNCH_DATE":"2019-11-11","APOAPSIS":"547.972","TLE_LINE2":"2 44727  53.0633  28.7641 0001085  68.1339 291.9765 15.06397581113108","MEAN_MOTION_DDOT":"0.0000000000000","CLASSIFICATION_TYPE":"U","OBJECT_ID":"2019-074Q","MEAN_ANOMALY":"291.9765","PERIOD":"95.592","OBJECT_NAME":"STARLINK-1022","EPOCH":"2021-11-30T21:30:59.466240","GP_ID":"190814958","BSTAR":"-0.00008154100000","SITE":"AFETR","INCLINATION":"53.0633","MEAN_ELEMENT_THEORY":"SGP4","PERIAPSIS":"546.470","REV_AT_EPOCH":"11310","ARG_OF_PERICENTER":"68.1339","EPHEMERIS_TYPE":"0","TLE_LINE1":"1 44727U 19074Q   21334.89652160 -.00001496  00000-0 -81541-4 0  9990","NORAD_CAT_ID":"44727"}];
